CUTE-1.7+APD II (CO-65) 
1 32785U 08021C   24366.82559545  .00013768  00000+0  10726-2 0  9992
2 32785  97.7702 331.3677 0011784  53.0196 307.2105 15.01274184905087
SWISSCUBE               
1 35932U 09051B   24366.64351943  .00004731  00000+0  98430-3 0  9994
2 35932  98.4477 253.7997 0008256  69.3645 290.8439 14.60509912811360
BEESAT-1                
1 35933U 09051C   24366.62807071  .00004037  00000+0  85010-3 0  9990
2 35933  98.4407 254.4097 0006696  80.7718 279.4238 14.60045994811429
AEROCUBE 4.5B           
1 38768U 12048L   24366.79233580  .00199707  00000+0  21886-2 0  9994
2 38768  64.6437 295.8758 0058234 305.5741  53.9983 15.60271200291828
FUNCUBE-1 (AO-73)       
1 39444U 13066AE  24366.61945783  .00016918  00000+0  14080-2 0  9993
2 39444  97.7440 322.8371 0042431 200.3011 159.6526 14.98031380599604
NANOSATC-BR1            
1 40024U 14033Q   24366.40057981  .00023730  00000+0  13952-2 0  9992
2 40024  98.0820 348.0874 0003803 203.2725 156.8332 15.11668900572951
QB50P2                  
1 40032U 14033Y   24366.83455882  .00018397  00000+0  13245-2 0  9998
2 40032  98.0264 325.4761 0009018 168.2118 191.9320 15.04226241572324
TIGRISAT                
1 40043U 14033AK  24366.88469199  .00006493  00000+0  81612-3 0  9999
2 40043  97.7120 161.6716 0053387  19.8727 340.4550 14.81404342566703
BISONSAT                
1 40974U 15058L   24366.59387521  .00031514  00000+0  20057-2 0  9993
2 40974  64.7666  75.6226 0150932 245.9811 112.5446 14.99650723 35275
SNAP-3 JIMI             
1 40975U 15058M   24366.86240945  .00023812  00000+0  17478-2 0  9997
2 40975  64.7690  93.5714 0167748 246.9146 111.4209 14.92817304 34478
AEROCUBE 8C             
1 41853U 16067F   24366.98561055  .00020007  00000+0  11153-2 0  9992
2 41853  98.0924 186.0144 0007736  88.2242 271.9874 15.13605960445241
PROMETHEUS 2-1          
1 41854U 16067G   25001.01680203  .00063644  00000+0  20683-2 0  9993
2 41854  98.0906 197.7067 0009739  89.4729 270.7626 15.31633024445854
PROMETHEUS 2-3          
1 41855U 16067H   24366.82545373  .00063132  00000+0  20593-2 0  9996
2 41855  98.0849 196.7966 0008182  99.6205 260.5959 15.31528932445825
CORVUS BC2              
1 42846U 17042X   24366.42194134  .00009369  00000+0  73890-3 0  9993
2 42846  97.3662 180.9862 0013425 110.3745 249.8924 15.00873902406990
MOVE-II                 
1 43780U 18099Y   24366.84912710  .00088600  00000+0  25418-2 0  9995
2 43780  97.4927  70.1175 0004675  14.1524 345.9850 15.35518885333037
SITRO-AIS 9 (SHCHUKIN)  
1 57201U 23091AM  24366.95560584  .00028911  00000+0  14107-2 0  9998
2 57201  97.5856  59.7611 0011379 143.4400 216.7613 15.18193701 83488
SITRO-AIS 12 (SMIRENNIY)
1 57204U 23091AQ  25001.15634489  .00029821  00000+0  14464-2 0  9993
2 57204  97.5864  60.1755 0011404 137.1670 223.0454 15.18395368 83525
VERONIKA                
1 58261U 23174F   24366.90667179  .00077744  00000+0  20125-2 0  9995
2 58261  97.4380  81.7688 0008048 261.7779  98.2553 15.38743332 63912
ROBUSTA-1E (ENSO)       
1 58470U 23185J   25001.12316627  .00059760  00000+0  16100-2 0  9995
2 58470  97.3998  73.2450 0008571 299.1586  60.8800 15.37587317 60390
SITRO-AIS 36            
1 59059U 24039J   25001.17786991  .00108797  00000+0  19045-2 0  9994
2 59059  97.4101 330.5887 0007687 208.2570 151.8266 15.50191520 47018
